{
  "type": "FeatureCollection",
  "features": [
    {
      "type": "Feature",
      "properties": {
        "norad_id": 66841,
        "name": "STARLINK-35715",
        "group": "last-30-days",
        "lat": -63.79484528691323,
        "lon": 45.35928356584476,
        "alt_km": 413.93044207583716,
        "timestamp": "2025-12-20T07:33:49.514754+00:00",
        "meta_object_name": "STARLINK-35715",
        "meta_object_id": "2025-280W",
        "meta_epoch": "2025-12-19T22:00:01.999584",
        "meta_mean_motion": 15.52473845,
        "meta_eccentricity": 0.00029778,
        "meta_inclination": 69.9994,
        "meta_ra_of_asc_node": 178.7127,
        "meta_arg_of_pericenter": 269.4437,
        "meta_mean_anomaly": 276.8684,
        "meta_ephemeris_type": 0,
        "meta_classification_type": "U",
        "meta_norad_cat_id": 66841,
        "meta_element_set_no": 999,
        "meta_rev_at_epoch": 405,
        "meta_bstar": 0.0015570931,
        "meta_mean_motion_dot": 0.00096639,
        "meta_mean_motion_ddot": 0,
        "tle_line1": "1 66841U 25280W   25353.91668981  .00096639  00000+0  15571-2 0  9991",
        "tle_line2": "2 66841  69.9994 178.7127 0002977 269.4437 276.8684 15.52473845  4050"
      },
      "geometry": {
        "type": "Point",
        "coordinates": [
          45.35928356584476,
          -63.79484528691323
        ]
      }
    },
    {
      "type": "Feature",
      "properties": {
        "norad_id": 66842,
        "name": "STARLINK-35769",
        "group": "last-30-days",
        "lat": -64.96821552194628,
        "lon": 48.878592740390836,
        "alt_km": 413.88560229702216,
        "timestamp": "2025-12-20T07:33:49.514763+00:00",
        "meta_object_name": "STARLINK-35769",
        "meta_object_id": "2025-280X",
        "meta_epoch": "2025-12-19T22:00:01.999584",
        "meta_mean_motion": 15.52477579,
        "meta_eccentricity": 0.00030529,
        "meta_inclination": 69.9994,
        "meta_ra_of_asc_node": 178.7097,
        "meta_arg_of_pericenter": 271.6627,
        "meta_mean_anomaly": 276.5701,
        "meta_ephemeris_type": 0,
        "meta_classification_type": "U",
        "meta_norad_cat_id": 66842,
        "meta_element_set_no": 999,
        "meta_rev_at_epoch": 405,
        "meta_bstar": 0.001574615,
        "meta_mean_motion_dot": 0.00097756,
        "meta_mean_motion_ddot": 0,
        "tle_line1": "1 66842U 25280X   25353.91668981  .00097756  00000+0  15746-2 0  9997",
        "tle_line2": "2 66842  69.9994 178.7097 0003052 271.6627 276.5701 15.52477579  4053"
      },
      "geometry": {
        "type": "Point",
        "coordinates": [
          48.878592740390836,
          -64.96821552194628
        ]
      }
    },
    {
      "type": "Feature",
      "properties": {
        "norad_id": 66843,
        "name": "STARLINK-35997",
        "group": "last-30-days",
        "lat": -67.01327635201929,
        "lon": 56.78039436576006,
        "alt_km": 413.9846690324148,
        "timestamp": "2025-12-20T07:33:49.514775+00:00",
        "meta_object_name": "STARLINK-35997",
        "meta_object_id": "2025-280Y",
        "meta_epoch": "2025-12-19T22:00:01.999584",
        "meta_mean_motion": 15.52470861,
        "meta_eccentricity": 0.00029371,
        "meta_inclination": 69.9995,
        "meta_ra_of_asc_node": 178.7058,
        "meta_arg_of_pericenter": 271.5258,
        "meta_mean_anomaly": 280.534,
        "meta_ephemeris_type": 0,
        "meta_classification_type": "U",
        "meta_norad_cat_id": 66843,
        "meta_element_set_no": 999,
        "meta_rev_at_epoch": 405,
        "meta_bstar": 0.0014622387,
        "meta_mean_motion_dot": 0.00090663,
        "meta_mean_motion_ddot": 0,
        "tle_line1": "1 66843U 25280Y   25353.91668981  .00090663  00000+0  14622-2 0  9990",
        "tle_line2": "2 66843  69.9995 178.7058 0002937 271.5258 280.5340 15.52470861  4053"
      },
      "geometry": {
        "type": "Point",
        "coordinates": [
          56.78039436576006,
          -67.01327635201929
        ]
      }
    },
    {
      "type": "Feature",
      "properties": {
        "norad_id": 66844,
        "name": "STARLINK-36073",
        "group": "last-30-days",
        "lat": -66.01601971047428,
        "lon": 52.57391985135494,
        "alt_km": 413.8786365378892,
        "timestamp": "2025-12-20T07:33:49.514787+00:00",
        "meta_object_name": "STARLINK-36073",
        "meta_object_id": "2025-280Z",
        "meta_epoch": "2025-12-19T22:00:01.999584",
        "meta_mean_motion": 15.52449432,
        "meta_eccentricity": 0.0003189,
        "meta_inclination": 69.9994,
        "meta_ra_of_asc_node": 178.708,
        "meta_arg_of_pericenter": 270.2006,
        "meta_mean_anomaly": 279.9368,
        "meta_ephemeris_type": 0,
        "meta_classification_type": "U",
        "meta_norad_cat_id": 66844,
        "meta_element_set_no": 999,
        "meta_rev_at_epoch": 405,
        "meta_bstar": 0.0014368469,
        "meta_mean_motion_dot": 0.00089001,
        "meta_mean_motion_ddot": 0,
        "tle_line1": "1 66844U 25280Z   25353.91668981  .00089001  00000+0  14368-2 0  9992",
        "tle_line2": "2 66844  69.9994 178.7080 0003189 270.2006 279.9368 15.52449432  4057"
      },
      "geometry": {
        "type": "Point",
        "coordinates": [
          52.57391985135494,
          -66.01601971047428
        ]
      }
    },
    {
      "type": "Feature",
      "properties": {
        "norad_id": 66845,
        "name": "STARLINK-36068",
        "group": "last-30-days",
        "lat": -69.1959167724302,
        "lon": 71.07752804237431,
        "alt_km": 413.85036904923527,
        "timestamp": "2025-12-20T07:33:49.514797+00:00",
        "meta_object_name": "STARLINK-36068",
        "meta_object_id": "2025-280AA",
        "meta_epoch": "2025-12-19T22:00:01.999584",
        "meta_mean_motion": 15.52472446,
        "meta_eccentricity": 0.00031033,
        "meta_inclination": 69.9994,
        "meta_ra_of_asc_node": 178.6984,
        "meta_arg_of_pericenter": 271.2722,
        "meta_mean_anomaly": 286.5406,
        "meta_ephemeris_type": 0,
        "meta_classification_type": "U",
        "meta_norad_cat_id": 66845,
        "meta_element_set_no": 999,
        "meta_rev_at_epoch": 405,
        "meta_bstar": 0.001493701,
        "meta_mean_motion_dot": 0.00092647,
        "meta_mean_motion_ddot": 0,
        "tle_line1": "1 66845U 25280AA  25353.91668981  .00092647  00000+0  14937-2 0  9995",
        "tle_line2": "2 66845  69.9994 178.6984 0003103 271.2722 286.5406 15.52472446  4050"
      },
      "geometry": {
        "type": "Point",
        "coordinates": [
          71.07752804237431,
          -69.1959167724302
        ]
      }
    },
    {
      "type": "Feature",
      "properties": {
        "norad_id": 66846,
        "name": "STARLINK-36055",
        "group": "last-30-days",
        "lat": -67.88217405178275,
        "lon": 61.2780081564569,
        "alt_km": 413.85688887910146,
        "timestamp": "2025-12-20T07:33:49.514807+00:00",
        "meta_object_name": "STARLINK-36055",
        "meta_object_id": "2025-280AB",
        "meta_epoch": "2025-12-19T22:00:01.999584",
        "meta_mean_motion": 15.52475431,
        "meta_eccentricity": 0.00030694,
        "meta_inclination": 69.9993,
        "meta_ra_of_asc_node": 178.7024,
        "meta_arg_of_pericenter": 270.1614,
        "meta_mean_anomaly": 283.8232,
        "meta_ephemeris_type": 0,
        "meta_classification_type": "U",
        "meta_norad_cat_id": 66846,
        "meta_element_set_no": 999,
        "meta_rev_at_epoch": 405,
        "meta_bstar": 0.0015552107,
        "meta_mean_motion_dot": 0.00096527,
        "meta_mean_motion_ddot": 0,
        "tle_line1": "1 66846U 25280AB  25353.91668981  .00096527  00000+0  15552-2 0  9991",
        "tle_line2": "2 66846  69.9993 178.7024 0003069 270.1614 283.8232 15.52475431  4059"
      },
      "geometry": {
        "type": "Point",
        "coordinates": [
          61.2780081564569,
          -67.88217405178275
        ]
      }
    },
    {
      "type": "Feature",
      "properties": {
        "norad_id": 66847,
        "name": "STARLINK-36061",
        "group": "last-30-days",
        "lat": -68.61148038408457,
        "lon": 66.04410011831114,
        "alt_km": 413.92518685579034,
        "timestamp": "2025-12-20T07:33:49.514817+00:00",
        "meta_object_name": "STARLINK-36061",
        "meta_object_id": "2025-280AC",
        "meta_epoch": "2025-12-19T22:00:01.999584",
        "meta_mean_motion": 15.52475395,
        "meta_eccentricity": 0.00029773,
        "meta_inclination": 69.9992,
        "meta_ra_of_asc_node": 178.7006,
        "meta_arg_of_pericenter": 271.0816,
        "meta_mean_anomaly": 284.8188,
        "meta_ephemeris_type": 0,
        "meta_classification_type": "U",
        "meta_norad_cat_id": 66847,
        "meta_element_set_no": 999,
        "meta_rev_at_epoch": 400,
        "meta_bstar": 0.0015203844,
        "meta_mean_motion_dot": 0.00094334,
        "meta_mean_motion_ddot": 0,
        "tle_line1": "1 66847U 25280AC  25353.91668981  .00094334  00000+0  15204-2 0  9990",
        "tle_line2": "2 66847  69.9992 178.7006 0002977 271.0816 284.8188 15.52475395  4005"
      },
      "geometry": {
        "type": "Point",
        "coordinates": [
          66.04410011831114,
          -68.61148038408457
        ]
      }
    }
  ]
}